[{"OBJECT_NAME":"STARLINK-3305","OBJECT_ID":"2021-125L","EPOCH":"2026-03-09T16:58:35.739840","MEAN_MOTION":15.08841386,"ECCENTRICITY":0.00010979,"INCLINATION":53.2167,"RA_OF_ASC_NODE":248.9744,"ARG_OF_PERICENTER":91.567,"MEAN_ANOMALY":268.5448,"EPHEMERIS_TYPE":0,"CLASSIFICATION_TYPE":"U","NORAD_CAT_ID":50166,"ELEMENT_SET_NO":999,"REV_AT_EPOCH":23659,"BSTAR":-0.00018218027,"MEAN_MOTION_DOT":-3.186e-5,"MEAN_MOTION_DDOT":0},{"OBJECT_NAME":"PACE","OBJECT_ID":"2014-033N","EPOCH":"2026-03-09T22:47:44.809152","MEAN_MOTION":15.09745465,"ECCENTRICITY":0.00061206,"INCLINATION":98.125,"RA_OF_ASC_NODE":67.7953,"ARG_OF_PERICENTER":179.3374,"MEAN_ANOMALY":180.7863,"EPHEMERIS_TYPE":0,"CLASSIFICATION_TYPE":"U","NORAD_CAT_ID":40022,"ELEMENT_SET_NO":999,"REV_AT_EPOCH":63805,"BSTAR":0.00051174262,"MEAN_MOTION_DOT":8.193e-5,"MEAN_MOTION_DDOT":0}]
